norad_id,name,regime,epoch,line1,line2,inclination,eccentricity,mean_motion,raan,arg_pericenter,mean_anomaly
40349,O3B FM11,MEO,20325.28600686,1 40349U 14083B   20325.28600686 -.00000027 +00000-0 +00000-0 0 0001\,2 40349 000.0515 015.3033 0003320 228.8956 115.7704 05.0011567110813,0.0515,0.000332,5.00115671,15.3033,228.8956,115.7704
40349,O3B FM11,MEO,20325.48589730,1 40349U 14083B   20325.48589730 -.00000027 +00000-0 +00000-0 0 0001\,2 40349 000.0515 015.3317 0003322 229.2083 115.4291 05.0011567410815,0.0515,0.0003322,5.00115674,15.3317,229.2083,115.4291
40349,O3B FM11,MEO,20325.88567835,1 40349U 14083B   20325.88567835 -.00000027  00000-0  00000+0 0  4745\,2 40349   0.0515  15.2837 0003323 229.5778 115.1073  5.00115672108284,0.0515,0.0003323,5.00115672,15.2837,229.5778,115.1073
40349,O3B FM11,MEO,20326.08556882,1 40349U 14083B   20326.08556882 -.00000028 +00000-0 +00000-0 0 0001\,2 40349 000.0515 015.2829 0003323 229.7432 114.9427 05.0011567510817,0.0515,0.0003323,5.00115675,15.2829,229.7432,114.9427
40349,O3B FM11,MEO,20326.68524017,1 40349U 14083B   20326.68524017 -.00000027 +00000-0 +00000-0 0 0001\,2 40349 000.0515 015.2486 0003325 230.3510 114.3690 05.0011569210820,0.0515,0.0003325,5.00115692,15.2486,230.351,114.369
40349,O3B FM11,MEO,20326.88513064,1 40349U 14083B   20326.88513064 -.00000027 +00000-0 +00000-0 0 0001\,2 40349 000.0515 015.2567 0003326 230.5754 114.1365 05.0011569610821,0.0515,0.0003326,5.00115696,15.2567,230.5754,114.1365
40349,O3B FM11,MEO,20330.28326932,1 40349U 14083B   20330.28326932 -.00000023  00000-0  00000+0 0  4753\,2 40349   0.0514  15.0758 0003335 233.6058 111.2872  5.00115752108501,0.0514,0.0003335,5.00115752,15.0758,233.6058,111.2872
40349,O3B FM11,MEO,20330.68305039,1 40349U 14083B   20330.68305039 -.00000022 +00000-0 +00000-0 0 0001\,2 40349 000.0515 015.0405 0003336 233.8876 111.0407 05.0011575610841,0.0515,0.0003336,5.00115756,15.0405,233.8876,111.0407
40349,O3B FM11,MEO,20331.28272203,1 40349U 14083B   20331.28272203 -.00000021 +00000-0 +00000-0 0 0001\,2 40349 000.0514 015.0398 0003339 234.3663 110.5629 05.0011575710844,0.0514,0.0003339,5.00115757,15.0398,234.3663,110.5629
40349,O3B FM11,MEO,20331.68250311,1 40349U 14083B   20331.68250311 -.00000020 +00000-0 +00000-0 0 0001\,2 40349 000.0514 015.0032 0003340 234.7837 110.1822 05.0011575810846,0.0514,0.000334,5.00115758,15.0032,234.7837,110.1822
40349,O3B FM11,MEO,20331.88239358,1 40349U 14083B   20331.88239358 -.00000020 +00000-0 +00000-0 0 0001\,2 40349 000.0514 014.9868 0003341 235.0418 109.9405 05.0011576310847,0.0514,0.0003341,5.00115763,14.9868,235.0418,109.9405
40349,O3B FM11,MEO,20332.48206519,1 40349U 14083B   20332.48206519 -.00000019 +00000-0 +00000-0 0 0001\,2 40349 000.0514 014.8661 0003340 235.6651 109.4380 05.0011576310850,0.0514,0.000334,5.00115763,14.8661,235.6651,109.438
40349,O3B FM11,MEO,20333.28162723,1 40349U 14083B   20333.28162723 -.00000018 +00000-0 +00000-0 0 0001\,2 40349 000.0514 014.8502 0003343 236.4585 108.6606 05.0011576610854,0.0514,0.0003343,5.00115766,14.8502,236.4585,108.6606
40349,O3B FM11,MEO,20334.28107989,1 40349U 14083B   20334.28107989 -.00000016 +00000-0 +00000-0 0 0001\,2 40349 000.0515 014.7589 0003343 237.3865 107.8240 05.0011575710859,0.0515,0.0003343,5.00115757,14.7589,237.3865,107.824
40349,O3B FM11,MEO,20334.68086082,1 40349U 14083B   20334.68086082 -.00000016 +00000-0 +00000-0 0 0001\,2 40349 000.0515 014.7356 0003344 237.7459 107.4879 05.0011576210861,0.0515,0.0003344,5.00115762,14.7356,237.7459,107.4879
40349,O3B FM11,MEO,20334.88075134,1 40349U 14083B   20334.88075134 -.00000015  00000-0  00000+0 0  4760\,2 40349   0.0515  14.6731 0003344 237.9595 107.3368  5.00115758108738,0.0515,0.0003344,5.00115758,14.6731,237.9595,107.3368
40349,O3B FM11,MEO,20335.28053223,1 40349U 14083B   20335.28053223 -.00000015 +00000-0 +00000-0 0 0001\,2 40349 000.0515 014.6406 0003346 238.4458 106.8830 05.0011576110864,0.0515,0.0003346,5.00115761,14.6406,238.4458,106.883
40349,O3B FM11,MEO,20335.68031323,1 40349U 14083B   20335.68031323 -.00000015 +00000-0 +00000-0 0 0001\,2 40349 000.0515 014.6110 0003346 238.7524 106.6059 05.0011575710866,0.0515,0.0003346,5.00115757,14.611,238.7524,106.6059
40349,O3B FM11,MEO,20336.27998470,1 40349U 14083B   20336.27998470 -.00000014 +00000-0 +00000-0 0 0001\,2 40349 000.0515 014.6182 0003342 239.0760 106.2751 05.0011575410869,0.0515,0.0003342,5.00115754,14.6182,239.076,106.2751
40349,O3B FM11,MEO,20336.67976579,1 40349U 14083B   20336.67976579 -.00000014  00000-0  00000-0 0    16\,2 40349   0.0515  14.5916 0003341 239.3985 105.9790  5.00115739108718,0.0515,0.0003341,5.00115739,14.5916,239.3985,105.979
40349,O3B FM11,MEO,20337.07954656,1 40349U 14083B   20337.07954656 -.00000013  00000-0  00000-0 0    12\,2 40349   0.0515  14.5202 0003342 239.8817 105.5671  5.00115748108732,0.0515,0.0003342,5.00115748,14.5202,239.8817,105.5671
40349,O3B FM11,MEO,20337.27943709,1 40349U 14083B   20337.27943709 -.00000013  00000-0  00000-0 0    11\,2 40349   0.0515  14.4623 0003341 240.0466 105.4601  5.00115742108737,0.0515,0.0003341,5.00115742,14.4623,240.0466,105.4601
40349,O3B FM11,MEO,20338.07899897,1 40349U 14083B   20338.07899897 -.00000012  00000-0  00000-0 0    17\,2 40349   0.0515  14.3860 0003343 240.8367 104.7460  5.00115730108775,0.0515,0.0003343,5.0011573,14.386,240.8367,104.746
40349,O3B FM11,MEO,20338.47877990,1 40349U 14083B   20338.47877990 -.00000012  00000-0  00000-0 0    11\,2 40349   0.0515  14.3637 0003343 241.1605 104.4442  5.00115724108798,0.0515,0.0003343,5.00115724,14.3637,241.1605,104.4442
40349,O3B FM11,MEO,20339.67812262,1 40349U 14083B   20339.67812262 -.00000012  00000-0  00000+0 0  4771\,2 40349   0.0515  14.2921 0003345 242.1803 103.4955  5.00115709108977,0.0515,0.0003345,5.00115709,14.2921,242.1803,103.4955
40349,O3B FM11,MEO,20339.87801308,1 40349U 14083B   20339.87801308 -.00000011 +00000-0 +00000-0 0 0001\,2 40349 000.0514 014.2788 0003345 242.3658 103.3232 05.0011570610886,0.0514,0.0003345,5.00115706,14.2788,242.3658,103.3232
40349,O3B FM11,MEO,20340.67757496,1 40349U 14083B   20340.67757496 -.00000011  00000-0  00000-0 0    13\,2 40349   0.0514  14.2381 0003346 243.0785 102.6508  5.00115691108904,0.0514,0.0003346,5.00115691,14.2381,243.0785,102.6508
40349,O3B FM11,MEO,20340.87746551,1 40349U 14083B   20340.87746551 -.00000011 +00000-0 +00000-0 0 0478\,2 40349 000.0514 014.2261 0003346 243.2646 102.4766 05.0011568210903,0.0514,0.0003346,5.00115682,14.2261,243.2646,102.4766
40349,O3B FM11,MEO,20343.27615133,1 40349U 14083B   20343.27615133 -.00000011  00000-0  00000-0 0    13\,2 40349   0.0514  14.0333 0003346 245.6181 100.3150  5.00115649109033,0.0514,0.0003346,5.00115649,14.0333,245.6181,100.315
40349,O3B FM11,MEO,20347.07407029,1 40349U 14083B   20347.07407029 -.00000014  00000-0  00000-0 0    11\,2 40349   0.0514  13.7338 0003347 249.4913  96.7398  5.00115648109200,0.0514,0.0003347,5.00115648,13.7338,249.4913,96.7398
40349,O3B FM11,MEO,20347.67374166,1 40349U 14083B   20347.67374166 -.00000015 +00000-0 +00000-0 0 0001\,2 40349 000.0514 013.7235 0003357 251.3420 094.8988 05.0011564910923,0.0514,0.0003357,5.00115649,13.7235,251.342,94.8988
40349,O3B FM11,MEO,20348.07352274,1 40349U 14083B   20348.07352274 -.00000016  00000-0  00000-0 0    15\,2 40349   0.0514  13.6529 0003358 251.6744  94.6368  5.00115634109254,0.0514,0.0003358,5.00115634,13.6529,251.6744,94.6368
40349,O3B FM11,MEO,20348.67319397,1 40349U 14083B   20348.67319397 -.00000017  00000-0  00000-0 0    11\,2 40349   0.0514  13.6474 0003358 252.0215  94.2948  5.00115645109286,0.0514,0.0003358,5.00115645,13.6474,252.0215,94.2948
40349,O3B FM11,MEO,20349.27286546,1 40349U 14083B   20349.27286546 -.00000019  00000-0  00000-0 0    19\,2 40349   0.0514  13.6376 0003348 251.4656  94.8602  5.00115638109317,0.0514,0.0003348,5.00115638,13.6376,251.4656,94.8602
40349,O3B FM11,MEO,20350.27231732,1 40349U 14083B   20350.27231732 -.00000021  00000-0  00000-0 0    11\,2 40349   0.0514  13.5811 0003351 252.5102  93.8713  5.00115672109367,0.0514,0.0003351,5.00115672,13.5811,252.5102,93.8713
40349,O3B FM11,MEO,20350.47220771,1 40349U 14083B   20350.47220771 -.00000022  00000-0  00000-0 0    15\,2 40349   0.0514  13.5732 0003352 252.7422  93.6471  5.00115677109372,0.0514,0.0003352,5.00115677,13.5732,252.7422,93.6471
40349,O3B FM11,MEO,20351.47165990,1 40349U 14083B   20351.47165990 -.00000024  00000-0  00000-0 0    19\,2 40349   0.0514  13.3931 0003353 253.8270  92.7417  5.00115687109411,0.0514,0.0003353,5.00115687,13.3931,253.827,92.7417
40349,O3B FM11,MEO,20351.67155043,1 40349U 14083B   20351.67155043 -.00000024  00000-0  00000-0 0    19\,2 40349   0.0515  13.3632 0003355 254.1565  92.4419  5.00115683109429,0.0515,0.0003355,5.00115683,13.3632,254.1565,92.4419
40349,O3B FM11,MEO,20352.47111220,1 40349U 14083B   20352.47111220 -.00000025  00000-0  00000-0 0    18\,2 40349   0.0515  13.3083 0003354 254.9084  91.7445  5.00115698109463,0.0515,0.0003354,5.00115698,13.3083,254.9084,91.7445
40349,O3B FM11,MEO,20353.07078368,1 40349U 14083B   20353.07078368 -.00000025  00000-0  00000-0 0    10\,2 40349   0.0515  13.2731 0003355 255.5307  91.1572  5.00115701109491,0.0515,0.0003355,5.00115701,13.2731,255.5307,91.1572
40349,O3B FM11,MEO,20353.47056457,1 40349U 14083B   20353.47056457 -.00000026  00000-0  00000-0 0    10\,2 40349   0.0515  13.2980 0003357 255.8450  90.8178  5.00115714109527,0.0515,0.0003357,5.00115714,13.298,255.845,90.8178
40349,O3B FM11,MEO,20354.47001721,1 40349U 14083B   20354.47001721 -.00000026  00000-0  00000-0 0    15\,2 40349   0.0514  13.1839 0003357 257.0276  89.7492  5.00115716109560,0.0514,0.0003357,5.00115716,13.1839,257.0276,89.7492
40349,O3B FM11,MEO,20354.66990774,1 40349U 14083B   20354.66990774 -.00000025  00000-0  00000-0 0    10\,2 40349   0.0514  13.1689 0003357 257.2526  89.5392  5.00115718109573,0.0514,0.0003357,5.00115718,13.1689,257.2526,89.5392
